start=new Date('2022-11-27T00:00:00.000Z').valueOf();
sats=[{"SITE":"AFETR","NORAD_CAT_ID":"53435","COUNTRY_CODE":"US","GP_ID":"218895075","CLASSIFICATION_TYPE":"U","LAUNCH_DATE":"2022-08-10","FILE":"3671048","APOAPSIS":"540.619","MEAN_ELEMENT_THEORY":"SGP4","PERIOD":"95.436","MEAN_ANOMALY":"265.4186","REV_AT_EPOCH":"130","OBJECT_NAME":"STARLINK-4542","ARG_OF_PERICENTER":"72.7342","MEAN_MOTION_DOT":"-0.00062868","MEAN_MOTION_DDOT":"0.0000000000000","PERIAPSIS":"538.727","REF_FRAME":"TEME","ECCENTRICITY":"0.00013680","ELEMENT_SET_NO":"999","TLE_LINE2":"2 53435  53.2177  85.3967 0001368  72.7342 265.4186 15.08863662  1309","EPOCH":"2022-11-26T22:00:00.999936","TLE_LINE1":"1 53435U 22097AZ  22330.91667824 -.00062868  00000-0 -39642-2 0  9991","RCS_SIZE":"LARGE","RA_OF_ASC_NODE":"85.3967","EPHEMERIS_TYPE":"0","BSTAR":"-0.00396420000000","INCLINATION":"53.2177","OBJECT_ID":"2022-097AZ","CENTER_NAME":"EARTH","OBJECT_TYPE":"PAYLOAD","SEMIMAJOR_AXIS":"6917.808","TIME_SYSTEM":"UTC","MEAN_MOTION":"15.08863662","DECAY_DATE":null},{"DECAY_DATE":null,"MEAN_MOTION":"15.08860718","TIME_SYSTEM":"UTC","SEMIMAJOR_AXIS":"6917.817","OBJECT_TYPE":"PAYLOAD","CENTER_NAME":"EARTH","OBJECT_ID":"2022-097BA","INCLINATION":"53.2170","BSTAR":"-0.00360760000000","EPHEMERIS_TYPE":"0","RA_OF_ASC_NODE":"85.3045","RCS_SIZE":"LARGE","TLE_LINE1":"1 53436U 22097BA  22330.91667824 -.00057278  00000-0 -36076-2 0  9999","EPOCH":"2022-11-26T22:00:00.999936","TLE_LINE2":"2 53436  53.2170  85.3045 0001363  60.8921 322.5180 15.08860718  1304","ELEMENT_SET_NO":"999","ECCENTRICITY":"0.00013630","MEAN_MOTION_DDOT":"0.0000000000000","PERIAPSIS":"538.739","REF_FRAME":"TEME","MEAN_MOTION_DOT":"-0.00057278","ARG_OF_PERICENTER":"60.8921","OBJECT_NAME":"STARLINK-4527","REV_AT_EPOCH":"130","MEAN_ANOMALY":"322.5180","PERIOD":"95.436","APOAPSIS":"540.625","MEAN_ELEMENT_THEORY":"SGP4","FILE":"3671048","LAUNCH_DATE":"2022-08-10","CLASSIFICATION_TYPE":"U","GP_ID":"218895605","COUNTRY_CODE":"US","NORAD_CAT_ID":"53436","SITE":"AFETR"},{"FILE":"3671021","LAUNCH_DATE":"2022-08-10","CLASSIFICATION_TYPE":"U","COUNTRY_CODE":"US","GP_ID":"218870051","MEAN_ANOMALY":"75.2854","APOAPSIS":"540.739","PERIOD":"95.437","MEAN_ELEMENT_THEORY":"SGP4","NORAD_CAT_ID":"53438","SITE":"AFETR","EPOCH":"2022-11-27T00:00:00.999648","TLE_LINE1":"1 53438U 22097BC  22331.00001157 -.00055070  00000-0 -34676-2 0  9995","MEAN_MOTION_DOT":"-0.00055070","ARG_OF_PERICENTER":"61.0543","OBJECT_NAME":"STARLINK-4526","REV_AT_EPOCH":"1734","TLE_LINE2":"2 53438  53.2173  84.8913 0001487  61.0543  75.2854 15.08851597 17343","ECCENTRICITY":"0.00014870","ELEMENT_SET_NO":"999","REF_FRAME":"TEME","PERIAPSIS":"538.681","MEAN_MOTION_DDOT":"0.0000000000000","INCLINATION":"53.2173","CENTER_NAME":"EARTH","OBJECT_ID":"2022-097BC","RA_OF_ASC_NODE":"84.8913","RCS_SIZE":"LARGE","BSTAR":"-0.00346760000000","EPHEMERIS_TYPE":"0","SEMIMAJOR_AXIS":"6917.845","OBJECT_TYPE":"PAYLOAD","DECAY_DATE":null,"MEAN_MOTION":"15.08851597","TIME_SYSTEM":"UTC"},{"ARG_OF_PERICENTER":"67.6688","MEAN_MOTION_DOT":"-0.00065227","REV_AT_EPOCH":"1734","OBJECT_NAME":"STARLINK-4519","ELEMENT_SET_NO":"999","ECCENTRICITY":"0.00014060","TLE_LINE2":"2 53439  53.2171  84.8520 0001406  67.6688  88.6989 15.08861909 17344","MEAN_MOTION_DDOT":"0.0000000000000","PERIAPSIS":"538.706","REF_FRAME":"TEME","EPOCH":"2022-11-27T00:00:00.999648","TLE_LINE1":"1 53439U 22097BD  22331.00001157 -.00065227  00000-0 -41152-2 0  9998","SITE":"AFETR","NORAD_CAT_ID":"53439","FILE":"3671020","LAUNCH_DATE":"2022-08-10","COUNTRY_CODE":"US","GP_ID":"218870038","CLASSIFICATION_TYPE":"U","MEAN_ANOMALY":"88.6989","APOAPSIS":"540.651","MEAN_ELEMENT_THEORY":"SGP4","PERIOD":"95.436","SEMIMAJOR_AXIS":"6917.813","OBJECT_TYPE":"PAYLOAD","DECAY_DATE":null,"TIME_SYSTEM":"UTC","MEAN_MOTION":"15.08861909","RCS_SIZE":"LARGE","RA_OF_ASC_NODE":"84.8520","EPHEMERIS_TYPE":"0","BSTAR":"-0.00411520000000","INCLINATION":"53.2171","CENTER_NAME":"EARTH","OBJECT_ID":"2022-097BD"},{"NORAD_CAT_ID":"53465","SITE":"AFWTR","CLASSIFICATION_TYPE":"U","GP_ID":"218895608","COUNTRY_CODE":"US","LAUNCH_DATE":"2022-08-12","FILE":"3671048","APOAPSIS":"563.764","MEAN_ELEMENT_THEORY":"SGP4","PERIOD":"95.919","MEAN_ANOMALY":"3.6197","OBJECT_NAME":"STARLINK-4415","REV_AT_EPOCH":"1611","MEAN_MOTION_DOT":"0.00002343","ARG_OF_PERICENTER":"356.5020","MEAN_MOTION_DDOT":"0.0000000000000","PERIAPSIS":"562.202","REF_FRAME":"TEME","TLE_LINE2":"2 53465  97.6536  89.7631 0001125 356.5020   3.6197 15.01269341 16112","ECCENTRICITY":"0.00011250","ELEMENT_SET_NO":"999","EPOCH":"2022-11-26T18:50:06.041760","TLE_LINE1":"1 53465U 22099A   22330.78479215  .00002343  00000-0  18691-3 0  9998","RA_OF_ASC_NODE":"89.7631","RCS_SIZE":"LARGE","BSTAR":"0.00018691000000","EPHEMERIS_TYPE":"0","INCLINATION":"97.6536","OBJECT_ID":"2022-099A","CENTER_NAME":"EARTH","OBJECT_TYPE":"PAYLOAD","SEMIMAJOR_AXIS":"6941.118","MEAN_MOTION":"15.01269341","TIME_SYSTEM":"UTC","DECAY_DATE":null},{"MEAN_ELEMENT_THEORY":"SGP4","APOAPSIS":"563.774","PERIOD":"95.919","MEAN_ANOMALY":"22.6315","COUNTRY_CODE":"US","GP_ID":"218895784","CLASSIFICATION_TYPE":"U","FILE":"3671048","LAUNCH_DATE":"2022-08-12","SITE":"AFWTR","NORAD_CAT_ID":"53466","TLE_LINE1":"1 53466U 22099B   22330.78293664  .00001558  00000-0  12579-3 0  9997","EPOCH":"2022-11-26T18:47:25.725696","PERIAPSIS":"562.167","MEAN_MOTION_DDOT":"0.0000000000000","REF_FRAME":"TEME","ELEMENT_SET_NO":"999","ECCENTRICITY":"0.00011580","TLE_LINE2":"2 53466  97.6536  89.7584 0001158 337.4859  22.6315 15.01273346 16106","REV_AT_EPOCH":"1610","OBJECT_NAME":"STARLINK-4398","ARG_OF_PERICENTER":"337.4859","MEAN_MOTION_DOT":"0.00001558","OBJECT_ID":"2022-099B","CENTER_NAME":"EARTH","INCLINATION":"97.6536","EPHEMERIS_TYPE":"0","BSTAR":"0.00012579000000","RCS_SIZE":"LARGE","RA_OF_ASC_NODE":"89.7584","TIME_SYSTEM":"UTC","MEAN_MOTION":"15.01273346","DECAY_DATE":null,"OBJECT_TYPE":"PAYLOAD","SEMIMAJOR_AXIS":"6941.106"},{"OBJECT_ID":"2022-099C","CENTER_NAME":"EARTH","INCLINATION":"97.6522","EPHEMERIS_TYPE":"0","BSTAR":"0.00016443000000","RCS_SIZE":"LARGE","RA_OF_ASC_NODE":"89.7536","TIME_SYSTEM":"UTC","MEAN_MOTION":"15.01274047","DECAY_DATE":null,"OBJECT_TYPE":"PAYLOAD","SEMIMAJOR_AXIS":"6941.104","APOAPSIS":"563.711","MEAN_ELEMENT_THEORY":"SGP4","PERIOD":"95.919","MEAN_ANOMALY":"20.1972","COUNTRY_CODE":"US","GP_ID":"218896311","CLASSIFICATION_TYPE":"U","LAUNCH_DATE":"2022-08-12","FILE":"3671048","SITE":"AFWTR","NORAD_CAT_ID":"53467","TLE_LINE1":"1 53467U 22099C   22330.78108098  .00002054  00000-0  16443-3 0  9990","EPOCH":"2022-11-26T18:44:45.396672","PERIAPSIS":"562.227","REF_FRAME":"TEME","MEAN_MOTION_DDOT":"0.0000000000000","ECCENTRICITY":"0.00010690","ELEMENT_SET_NO":"999","TLE_LINE2":"2 53467  97.6522  89.7536 0001069 339.9210  20.1972 15.01274047 16109","REV_AT_EPOCH":"1610","OBJECT_NAME":"STARLINK-4394","ARG_OF_PERICENTER":"339.9210","MEAN_MOTION_DOT":"0.00002054"},{"MEAN_ANOMALY":"88.3772","APOAPSIS":"563.702","PERIOD":"95.918","MEAN_ELEMENT_THEORY":"SGP4","FILE":"3671048","LAUNCH_DATE":"2022-08-12","GP_ID":"218895432","COUNTRY_CODE":"US","CLASSIFICATION_TYPE":"U","SITE":"AFWTR","NORAD_CAT_ID":"53468","TLE_LINE1":"1 53468U 22099D   22330.77923040  .00002584  00000-0  20557-3 0  9991","EPOCH":"2022-11-26T18:42:05.506560","ECCENTRICITY":"0.00010720","ELEMENT_SET_NO":"999","TLE_LINE2":"2 53468  97.6514  89.7442 0001072 271.7330  88.3772 15.01277411 16109","PERIAPSIS":"562.214","MEAN_MOTION_DDOT":"0.0000000000000","REF_FRAME":"TEME","ARG_OF_PERICENTER":"271.7330","MEAN_MOTION_DOT":"0.00002584","REV_AT_EPOCH":"1610","OBJECT_NAME":"STARLINK-4400","CENTER_NAME":"EARTH","OBJECT_ID":"2022-099D","INCLINATION":"97.6514","EPHEMERIS_TYPE":"0","BSTAR":"0.00020557000000","RCS_SIZE":"LARGE","RA_OF_ASC_NODE":"89.7442","DECAY_DATE":null,"TIME_SYSTEM":"UTC","MEAN_MOTION":"15.01277411","SEMIMAJOR_AXIS":"6941.093","OBJECT_TYPE":"PAYLOAD"},{"NORAD_CAT_ID":"53469","SITE":"AFWTR","MEAN_ANOMALY":"98.3498","PERIOD":"95.918","APOAPSIS":"563.890","MEAN_ELEMENT_THEORY":"SGP4","FILE":"3671048","LAUNCH_DATE":"2022-08-12","CLASSIFICATION_TYPE":"U","GP_ID":"218895255","COUNTRY_CODE":"US","TLE_LINE2":"2 53469  97.6518  89.7363 0001338 261.7575  98.3498 15.01276276 16105","ELEMENT_SET_NO":"999","ECCENTRICITY":"0.00013380","REF_FRAME":"TEME","PERIAPSIS":"562.033","MEAN_MOTION_DDOT":"0.0000000000000","MEAN_MOTION_DOT":"0.00009827","ARG_OF_PERICENTER":"261.7575","OBJECT_NAME":"STARLINK-4399","REV_AT_EPOCH":"1610","TLE_LINE1":"1 53469U 22099E   22330.77738233  .00009827  00000-0  76831-3 0  9993","EPOCH":"2022-11-26T18:39:25.833312","BSTAR":"0.00076831000000","EPHEMERIS_TYPE":"0","RA_OF_ASC_NODE":"89.7363","RCS_SIZE":"LARGE","CENTER_NAME":"EARTH","OBJECT_ID":"2022-099E","INCLINATION":"97.6518","DECAY_DATE":null,"MEAN_MOTION":"15.01276276","TIME_SYSTEM":"UTC","SEMIMAJOR_AXIS":"6941.097","OBJECT_TYPE":"PAYLOAD"},{"MEAN_ANOMALY":"55.3279","PERIOD":"95.919","APOAPSIS":"563.618","MEAN_ELEMENT_THEORY":"SGP4","LAUNCH_DATE":"2022-08-12","FILE":"3671048","GP_ID":"218896136","COUNTRY_CODE":"US","CLASSIFICATION_TYPE":"U","SITE":"AFWTR","NORAD_CAT_ID":"53470","TLE_LINE1":"1 53470U 22099F   22330.77762723  .00000221  00000-0  21792-4 0  9992","EPOCH":"2022-11-26T18:39:46.992672","ECCENTRICITY":"0.00009350","ELEMENT_SET_NO":"999","TLE_LINE2":"2 53470  97.6510  89.7474 0000935 304.7857  55.3279 15.01273839 16107","PERIAPSIS":"562.320","REF_FRAME":"TEME","MEAN_MOTION_DDOT":"0.0000000000000","ARG_OF_PERICENTER":"304.7857","MEAN_MOTION_DOT":"0.00000221","REV_AT_EPOCH":"1610","OBJECT_NAME":"STARLINK-4393","CENTER_NAME":"EARTH","OBJECT_ID":"2022-099F","INCLINATION":"97.6510","EPHEMERIS_TYPE":"0","BSTAR":"0.00002179200000","RCS_SIZE":"LARGE","RA_OF_ASC_NODE":"89.7474","DECAY_DATE":null,"TIME_SYSTEM":"UTC","MEAN_MOTION":"15.01273839","SEMIMAJOR_AXIS":"6941.104","OBJECT_TYPE":"PAYLOAD"}];
